{"type":"FeatureCollection","crs":{"type":"name","properties":{"name":"EPSG:4326"}},"features":[{"type":"Feature","id":1358,"geometry":{"type":"Polygon","coordinates":[[[-82.6999425213588,27.772792562671],[-82.6808364096232,27.7728852105106],[-82.6809022217824,27.7774077784914],[-82.6753028899823,27.7774276865782],[-82.6752925529804,27.7732924498386],[-82.6583293983942,27.7733700730671],[-82.6582421144251,27.7733652242489],[-82.6580971525884,27.7729418086724],[-82.6580793438823,27.7723739039192],[-82.6581139741609,27.7719001006319],[-82.6581577996085,27.7713000379977],[-82.6581399924194,27.7709789443884],[-82.6581027284503,27.7702962757325],[-82.6580914333462,27.7700746155716],[-82.6580813633954,27.7698769933687],[-82.6580742364231,27.769737470612],[-82.6580055710369,27.7697489141183],[-82.657984044505,27.7693197769362],[-82.6579826797522,27.7687456853543],[-82.6579531335594,27.7683188174998],[-82.6578224573925,27.7676509076193],[-82.6575122925806,27.7671545944641],[-82.6572735934296,27.7669139151833],[-82.6570940991645,27.766760461613],[-82.6567558859474,27.7665700588113],[-82.6563194312015,27.7663902015788],[-82.6558082453299,27.7663011299491],[-82.6552388182537,27.7662400299391],[-82.6548164068397,27.7662093636709],[-82.6547968448402,27.7664167768772],[-82.6547968239027,27.7664166686861],[-82.6528521302946,27.7663624094818],[-82.6515652973831,27.7663264904281],[-82.6513927009551,27.7663217809178],[-82.6509014522333,27.7662893232218],[-82.6507367127712,27.7662785804537],[-82.6497792053397,27.7662923584933],[-82.6486166654371,27.7662978241],[-82.6484886765714,27.7663076675196],[-82.648300119849,27.7662899337728],[-82.6479684413585,27.7663470517486],[-82.6477079834489,27.7663483816164],[-82.6465214322147,27.7663075419384],[-82.6465117018566,27.7657365340358],[-82.6465056796714,27.7637955756448],[-82.6465162259537,27.7634691018602],[-82.6457724145603,27.763003266392],[-82.6454817472203,27.7628418575019],[-82.6450654745249,27.7625833729879],[-82.6447867840661,27.7623839261108],[-82.6446397339456,27.7622706744354],[-82.6444683707677,27.7621711004276],[-82.6443001348665,27.7620850761363],[-82.644070575132,27.7619423686264],[-82.6439474603425,27.7617503339394],[-82.6438558782556,27.7616219602014],[-82.64372368054,27.7615533420104],[-82.6435432649337,27.7614700863751],[-82.64339053409,27.7614273918266],[-82.6432402641963,27.761284312803],[-82.6430717914597,27.7611575956778],[-82.6429645661988,27.7610739988614],[-82.6427112189994,27.761034485404],[-82.642561450291,27.7610164573629],[-82.642347581809,27.7609086755127],[-82.6421764113275,27.7608416513983],[-82.6419408054904,27.7607071070477],[-82.6414816017659,27.7604054054459],[-82.6414088872795,27.7603832544315],[-82.6413499211089,27.7603760412311],[-82.6412596867295,27.7603745736661],[-82.6410468744324,27.7603737036961],[-82.6400636904697,27.7603749644022],[-82.6400575909312,27.7594191110035],[-82.6389312415098,27.759420063947],[-82.638940134497,27.7566690712143],[-82.6389242012592,27.7566691707752],[-82.6389277869326,27.7564832068494],[-82.6389289710723,27.756398903917],[-82.6389273162465,27.756334600484],[-82.6390374527052,27.7563350255916],[-82.6390513255772,27.7558305032571],[-82.6390222598483,27.7556607882648],[-82.6390204470578,27.7543871320322],[-82.6390138867411,27.7542273253774],[-82.6404513059397,27.7542406365873],[-82.6404356957079,27.7534914742901],[-82.6394474563181,27.7534760832839],[-82.6394354512767,27.7521900835867],[-82.6394350567324,27.7521225436258],[-82.6385075173864,27.7521218295082],[-82.6385078658985,27.7521815761473],[-82.6383626656386,27.7521824472105],[-82.6385675479857,27.7411732704178],[-82.6465268599092,27.7411486727698],[-82.6465247708952,27.7410493043444],[-82.6544516427997,27.7410119839553],[-82.6556314463696,27.7410063907898],[-82.6573141172964,27.7409983957429],[-82.6585712843752,27.7409924098948],[-82.6596930638404,27.740987058304],[-82.6681144269464,27.7409465938313],[-82.6793571675606,27.7410245880643],[-82.6818350519207,27.7410123827916],[-82.6825119850662,27.7410090413368],[-82.6828214396318,27.7410075120052],[-82.6832365047653,27.7409888649407],[-82.6832314617401,27.7401811345226],[-82.6834247287927,27.7401801787681],[-82.6854669927131,27.7401700622671],[-82.6856257521383,27.7401692744145],[-82.6857720664937,27.7401718937894],[-82.6858185662146,27.7401700975819],[-82.6858347765749,27.7401650539156],[-82.6858557663153,27.7401518692953],[-82.6858728332316,27.7401319709477],[-82.685914701534,27.7401010123158],[-82.6859565093286,27.7400897470069],[-82.6859784276495,27.7400892029081],[-82.6860158041022,27.7400965053899],[-82.6860352872255,27.7400964087749],[-82.6860486338407,27.7401134671144],[-82.6860676935875,27.7401305839777],[-82.68608641611,27.7401598445561],[-82.6860923300852,27.7401784039265],[-82.6860936552889,27.7402120519364],[-82.6860939416834,27.7402577670538],[-82.6860946351328,27.7403682546463],[-82.686095058135,27.7404357749073],[-82.6860953657751,27.7404848807564],[-82.6860950562943,27.7409960416052],[-82.6875147151347,27.7409889844761],[-82.6875147100677,27.7410483580031],[-82.6874527853498,27.741048485258],[-82.6874324993903,27.7412971865852],[-82.6874405599386,27.7425802186334],[-82.687442118884,27.7446935683742],[-82.6997125447578,27.7446319716874],[-82.6999425213588,27.772792562671]]]},"properties":{"OBJECTID":1358,"SPTXDTDSCRP":"Community Redevelopment Area","NAME":"SOUTH ST PETE","ACTIVE":"Yes","GLOBALID":"176731a5-1899-4cbb-87e5-88da900a4372"}}]}
